KUIPER-00061            
1 64521U 25134X   25259.58337963  .00006311  00000+0  34089-3 0  9997
2 64521  51.8837 281.7051 0007848  56.0190  75.0321 15.15911777  4909
KUIPER-00062            
1 64522U 25134Y   25259.49084065  .00009612  00000+0  65020-3 0  9996
2 64522  51.8856 288.0743 0010781  65.6533 294.5565 15.07088306 14213
KUIPER-00063            
1 64523U 25134Z   25259.58337963 -.00002805  00000+0 -33414-3 0  9996
2 64523  51.8990 287.8498 0005837  24.8223 305.1680 14.80491186  4946
KUIPER-00064            
1 64524U 25134AA  25259.58337963  .00016380  00000+0  14714-2 0  9999
2 64524  51.8913 285.4576 0006188 129.1166  47.3004 14.95794476  5814
KUIPER-00065            
1 64525U 25134AB  25259.58337963  .00006561  00000+0  87369-3 0  9997
2 64525  51.8991 290.1014 0011580  71.6540  85.5822 14.80635831  5714
KUIPER-00066            
1 64526U 25134AC  25259.46370183  .00014632  00000+0  72271-3 0  9990
2 64526  51.8859 284.8786 0006042  48.6528 311.4969 15.18066949 14253
KUIPER-00069            
1 64816U 25151A   25259.52294712  .00062673  00000+0  16910-2 0  9996
2 64816  51.8798 347.1338 0007084   7.5854 352.5238 15.37170353 10747
KUIPER-00070            
1 64817U 25151B   25259.58337963 -.00065425  00000+0 -77845-2 0  9993
2 64817  51.8981 355.4042 0008234  43.1372  98.3196 14.84217084  4504
